OBJECT_NAME,OBJECT_ID,EPOCH,MEAN_MOTION,ECCENTRICITY,INCLINATION,RA_OF_ASC_NODE,ARG_OF_PERICENTER,MEAN_ANOMALY,EPHEMERIS_TYPE,CLASSIFICATION_TYPE,NORAD_CAT_ID,ELEMENT_SET_NO,REV_AT_EPOCH,BSTAR,MEAN_MOTION_DOT,MEAN_MOTION_DDOT
FLOCK 4BE-31,2024-149W,2026-06-17T19:06:43.278336,15.44110749,.00014125,97.3800,254.0910,240.9492,119.1615,0,U,60488,999,10247,.3635972E-3,.16559E-3,0
FLOCK 4BE-20,2024-149X,2026-06-17T18:24:17.355456,15.38067673,.00025877,97.3697,250.7987,246.2181,113.8793,0,U,60489,999,10230,.30267054E-3,.11261E-3,0
FLOCK 4BE-23,2024-149Y,2026-06-17T18:10:26.288544,15.37686843,.00020621,97.3781,251.1661,255.2413,104.8604,0,U,60490,999,10228,.31198445E-3,.11467E-3,0
FLOCK 4BE-15,2024-149Z,2026-06-17T19:01:24.148704,15.59802576,.00031745,97.3684,254.1953,238.0728,122.0220,0,U,60491,999,10252,.93730275E-3,.7562E-3,0
FLOCK 4BE-17,2024-149AA,2026-06-17T17:46:31.615680,15.39796692,.00021289,97.3773,252.1141,232.2873,127.8180,0,U,60492,999,10234,.31401692E-3,.12367E-3,0
NUSAT-50 (NANCY ROMAN),2024-149AB,2026-06-17T18:10:12.879264,15.29864344,.0003524,97.3789,250.0088,172.0337,188.0960,0,U,60493,999,10221,.26148732E-3,.7488E-4,0
FLOCK 4BE-22,2024-149AC,2026-06-17T18:52:44.362848,15.41181912,.00024004,97.3734,252.3531,250.1352,109.9636,0,U,60494,999,10239,.31716571E-3,.13079E-3,0
FLOCK 4BE-34,2024-149AD,2026-06-17T19:17:26.797632,15.41172947,.00022309,97.3785,253.1931,263.4270,96.6722,0,U,60495,999,10242,.31162436E-3,.12844E-3,0
TYCHE,2024-149AE,2026-06-17T22:08:22.596864,15.25993785,.00006876,97.3754,246.7293,237.1370,122.9802,0,U,60496,999,10201,.1447383E-3,.3648E-4,0
FLOCK 4BE-32,2024-149AF,2026-06-17T18:31:39.022752,15.42173893,.00024512,97.3722,252.7051,254.8758,105.2218,0,U,60497,999,10242,.35166576E-3,.15001E-3,0
NUSAT-48 (HENRIETTA LEAVITT),2024-149AG,2026-06-17T19:28:00.746400,15.29869249,.00024022,97.3920,250.3069,272.4385,87.6580,0,U,60498,999,10223,.24795398E-3,.7096E-4,0
FLOCK 4BE-30,2024-149AH,2026-06-17T18:30:34.235712,15.56633829,.00044756,97.3773,254.3094,234.3036,125.7802,0,U,60499,999,10186,.15472471E-2,.111446E-2,0
NUSAT-49 (KLARA DAN VON NEUMANN),2024-149AJ,2026-06-17T17:22:12.200448,15.29952599,.00008676,97.3781,250.0074,338.2601,21.8603,0,U,60500,999,10221,.24369639E-3,.6991E-4,0
FLOCK 4BE-11,2024-149AK,2026-06-17T18:23:24.887328,15.42992891,.00025909,97.3700,252.9303,254.9665,105.1296,0,U,60501,999,10244,.31712212E-3,.13894E-3,0
YAM-7,2024-149AN,2026-06-17T18:37:14.625408,15.31826008,.00019074,97.3784,249.0230,303.5307,56.5752,0,U,60504,999,10214,.19909237E-3,.604E-4,0
FLOCK 4BE-24,2024-149AP,2026-06-17T18:04:02.312256,15.43090984,.00027438,97.3718,253.1725,270.3228,89.7705,0,U,60505,999,10245,.37707205E-3,.16597E-3,0
LUR-1,2024-149AQ,2026-06-17T18:24:15.743232,15.30112131,.000272,97.3739,247.5911,316.5488,43.5538,0,U,60506,999,10206,.19905726E-3,.5724E-4,0
TANAGER-1,2024-149AR,2026-06-17T03:49:42.154752,15.44906910,.0002808,97.2594,262.4119,306.3833,53.7157,0,U,60507,999,10303,.78842E-4,.3617E-4,0
EAGLEEYE,2024-149AS,2026-06-17T19:22:22.304640,15.71011626,.00042853,97.3729,262.1798,236.5415,123.5439,0,U,60508,999,10303,.68742619E-3,.86667E-3,0
FLOCK 4BE-29,2024-149AT,2026-06-17T22:58:58.901088,15.44166562,.00013896,97.3814,254.8416,285.4071,74.7023,0,U,60509,999,10253,.30689878E-3,.13985E-3,0
TRANSPORTER-11 OBJECT AU,2024-149AU,2026-06-17T18:32:32.144064,15.40235804,.00022518,97.3732,252.4975,285.7288,74.3709,0,U,60510,999,10240,.30538332E-3,.122E-3,0
FLOCK 4BE-2,2024-149AV,2026-06-17T21:31:38.524224,15.52776649,.00034494,97.3836,256.2117,251.0927,108.9952,0,U,60511,999,10261,.7972165E-3,.49455E-3,0
FLOCK 4BE-13,2024-149AW,2026-06-17T19:19:04.471968,15.41901453,.00029475,97.3723,253.2224,257.2466,102.8452,0,U,60512,999,10246,.26963454E-3,.11373E-3,0
FLOCK 4BE-27,2024-149AX,2026-06-17T18:45:10.861344,15.34454110,.00024347,97.3826,250.6326,313.6150,46.4890,0,U,60513,999,10223,.22349848E-3,.7379E-4,0
FLOCK 4BE-9,2024-149AY,2026-06-17T17:44:56.661216,15.40809245,.0001388,97.3795,253.0163,291.8778,68.2320,0,U,60514,999,10240,.31506905E-3,.12831E-3,0
FLOCK 4BE-6,2024-149BA,2026-06-17T02:51:04.587840,15.39573164,.000205,97.3794,251.7484,295.9275,64.1759,0,U,60516,999,10226,.29618473E-3,.11573E-3,0
FLOCK 4BE-14,2024-149BB,2026-06-17T18:02:48.998400,15.41007625,.00030317,97.3698,252.5229,288.7103,71.3815,0,U,60517,999,10241,.32703801E-3,.13412E-3,0
FLOCK 4BE-1,2024-149BC,2026-06-17T18:24:54.011520,15.42616571,.00028776,97.3784,253.8177,286.5382,73.5549,0,U,60518,999,10246,.3373804E-3,.14603E-3,0
FLOCK 4BE-28,2024-149BD,2026-06-17T18:44:07.302048,15.44928710,.00029428,97.3751,254.5574,279.8005,80.2911,0,U,60519,999,10253,.32780892E-3,.1534E-3,0
IPERDRONE.0,2024-149BE,2026-06-17T19:37:06.952512,15.66733682,.00036744,97.3780,262.0603,224.2771,135.8196,0,U,60520,999,10301,.61628163E-3,.65036E-3,0
TRANSPORTER-11 OBJECT BF,2024-149BF,2026-06-17T00:04:09.111072,15.84671236,.00061409,97.3769,263.9270,233.7952,126.2750,0,U,60521,999,10305,.10023056E-2,.236073E-2,0
CONNECTA IOT-2,2024-149BG,2026-06-16T20:26:33.447264,15.23972937,.000556,97.3842,246.0023,339.3032,20.7980,0,U,60522,999,10184,.15598385E-3,.3705E-4,0
CONNECTA IOT-4,2024-149BJ,2026-06-17T18:59:27.252960,15.42157509,.00039977,97.3799,253.1686,281.9105,78.1694,0,U,60524,999,10242,.36053515E-3,.15376E-3,0
ORESAT0.5,2024-149BK,2026-06-17T18:22:48.933696,15.45099012,.00041588,97.3720,254.7750,270.7074,89.3698,0,U,60525,999,10256,.34441743E-3,.1622E-3,0
DEIMOS,2024-149BL,2026-06-17T19:09:39.738240,15.44241347,.0003996,97.3783,254.9477,278.4719,81.6076,0,U,60526,999,10254,.33224938E-3,.15192E-3,0
CUAVA-2,2024-149BM,2026-06-17T19:11:34.530144,15.36129137,.00051829,97.3727,250.3198,292.1892,67.8802,0,U,60527,999,10226,.28348156E-3,.9902E-4,0
ERNST,2024-149BN,2026-06-17T18:07:02.025984,15.39222522,.00044173,97.3811,252.4788,295.6188,64.4601,0,U,60528,999,10236,.28157053E-3,.10874E-3,0
TORO,2024-149BQ,2026-06-17T18:35:34.728000,14.96428096,.00015021,97.6791,243.4316,80.8916,279.2476,0,U,60530,999,10004,.11866739E-3,.1288E-4,0
HYPSO-2,2024-149BR,2026-06-17T17:38:07.103616,14.98790415,.00003255,97.6810,244.9880,34.2035,325.9209,0,U,60531,999,10013,.15587005E-3,.182E-4,0
LEMU NGE,2024-149BS,2026-06-17T17:17:42.615168,14.94956379,.00020004,97.6842,243.6697,61.8013,298.3409,0,U,60532,999,10003,.11254557E-3,.1173E-4,0
LEMUR-2-STELLA,2024-149BT,2026-06-17T17:50:51.004032,15.11821344,.00016799,97.6738,251.2009,96.0529,264.0893,0,U,60533,999,10058,.51289417E-3,.8701E-4,0
SATELIOT_2,2024-149BU,2026-06-17T18:17:07.685664,14.96365464,.00021529,97.6833,243.7073,94.0293,266.1175,0,U,60534,999,10005,.18509802E-3,.2038E-4,0
NIGHTJAR,2024-149BV,2026-06-17T17:25:42.098880,14.99019804,.00011649,97.6842,245.4261,78.7166,281.4188,0,U,60535,999,14295,.15786515E-3,.1855E-4,0
LEMUR-2-MARHISYAM,2024-149BW,2026-06-17T22:08:49.752384,15.11273220,.00032638,97.6878,251.8303,116.8175,243.3389,0,U,60536,999,10059,.55320687E-3,.9249E-4,0
SATELIOT_4,2024-149BX,2026-06-17T18:32:32.621856,14.96672985,.00032256,97.6743,243.2454,58.3637,301.7899,0,U,60537,999,10006,.12099912E-3,.1323E-4,0
PICO-02A021,2024-149BY,2026-06-16T23:12:06.539904,15.03250509,.00049197,97.6753,246.7992,28.4787,331.6706,0,U,60538,999,9970,.33960538E-3,.454E-4,0
ICEYE-X43,2024-149BZ,2026-06-17T18:18:12.769920,14.99620581,.0008224,97.6788,245.7190,83.2602,276.9557,0,U,60539,999,10020,.26728625E-3,.3234E-4,0
HAWK-10A,2024-149CA,2026-06-17T18:30:48.288672,14.96519830,.00049916,97.6899,244.6726,76.9230,283.2549,0,U,60540,999,10007,.14135396E-3,.1549E-4,0
UMBRA-09,2024-149CB,2026-06-17T19:01:13.977696,15.18054351,.00011639,97.6983,256.0051,242.1894,117.9221,0,U,60541,999,10081,.66773852E-3,.13542E-3,0
QPS-SAR-8 (AMATERU-IV),2024-149CC,2026-06-17T19:01:02.389728,15.04137403,.00047091,97.6657,247.9376,107.0918,253.0823,0,U,60542,999,10036,.257958E-3,.3516E-4,0
ARCTIC WEATHER SATELLITE,2024-149CD,2026-06-17T18:11:44.363904,14.89807353,.00036579,97.6801,239.2077,103.5111,256.6514,0,U,60543,999,9938,.73937577E-4,.656E-5,0
CAPELLA-15 (ACADIA-5),2024-149CE,2026-06-17T19:00:18.318816,14.92405099,.00047286,97.6768,241.6799,77.1766,282.9981,0,U,60544,999,9994,.2861579E-3,.2876E-4,0
HAWK-10B,2024-149CF,2026-06-17T18:30:35.176608,14.96518579,.00069672,97.6820,244.0272,91.0170,269.1850,0,U,60545,999,10007,.12383461E-3,.1351E-4,0
ICEYE-X39,2024-149CG,2026-06-17T17:51:29.695680,14.99899675,.00053542,97.6761,245.7601,117.2847,242.8922,0,U,60546,999,10020,.22179431E-3,.2692E-4,0
UMBRA-10,2024-149CH,2026-06-17T19:00:35.469216,15.18057093,.00004364,97.6980,256.0355,73.6877,286.4404,0,U,60547,999,10082,.65492795E-3,.13282E-3,0
ICEYE-X33,2024-149CJ,2026-06-17T18:27:34.971264,15.00890749,.00018139,97.7282,247.9062,90.9671,269.1760,0,U,60548,999,10029,.3084639E-3,.3866E-4,0
ICEYE-X40,2024-149CK,2026-06-17T18:29:03.699744,14.97944761,.00066108,97.6821,245.2564,80.4663,279.7306,0,U,60549,999,10016,.1732512E-3,.1985E-4,0
SATELIOT_1,2024-149CL,2026-06-17T18:16:17.764608,14.98071868,.0008394,97.6755,244.6493,78.9836,281.2330,0,U,60550,999,10015,.20479261E-3,.2366E-4,0
BRO-14,2024-149CM,2026-06-17T15:55:23.744928,14.96176420,.00080501,97.6874,244.4328,95.5914,264.6225,0,U,60551,999,10006,.57196799E-4,.587E-5,0
SATELIOT_3,2024-149CN,2026-06-17T22:29:57.261120,14.98055558,.00059092,97.6817,245.6154,84.5826,275.6070,0,U,60552,999,10019,.14258328E-3,.1628E-4,0
BRO-15,2024-149CP,2026-06-17T15:30:07.430976,14.96168443,.00095906,97.6808,244.0166,87.0571,273.1748,0,U,60553,999,10007,.13980985E-3,.1519E-4,0
UM5-RIBAT,2024-149CQ,2026-06-17T22:31:49.984608,15.01079540,.0003437,97.6634,246.7292,60.5964,299.5603,0,U,60554,999,10030,.19447461E-3,.2428E-4,0
UM5-EOSAT,2024-149CR,2026-06-17T18:31:11.119872,15.01535707,.00088201,97.6713,247.5006,112.4318,247.7842,0,U,60555,999,10030,.29356574E-3,.3743E-4,0
LASARSAT,2024-247Q,2026-06-16T23:25:46.453440,15.46364825,.000818,44.9742,263.4006,330.0323,30.0098,0,U,62391,999,8328,.52389176E-3,.26221E-3,0
